NUSAT-48 (HENRIETTA LE*)
1 60498U 24149AG  26068.80506098  .00012988  00000+0  45212-3 0  9999
2 60498  97.3923 150.8264 0002754 263.3026  96.7901 15.29812597 86946
STARLINK-35623          
1 66138U 25237AA  26068.21139863  .00039562  00000+0  13412-2 0  9995
2 66138  53.1591  42.1028 0001058  90.3957 269.7165 15.30190460 22531
